GLOBALSTAR M068         
1 32266U 07048D   25324.01268949 -.00000041  00000+0  34864-3 0  9996
2 32266  51.9864 187.2448 0001986  98.3452  43.6554 12.62833677837249
GLOBALSTAR M079         
1 37188U 10054A   25323.95606075 -.00000090  00000+0  76942-4 0  9991
2 37188  52.0063  25.6004 0000233 155.2252  15.9983 12.62268585696126
GLOBALSTAR M074         
1 37189U 10054B   25324.18942988 -.00000082  00000+0  12124-3 0  9996
2 37189  52.0047  24.1880 0000382  94.8765 297.4335 12.62263545696766
GLOBALSTAR M076         
1 37190U 10054C   25324.21668067 -.00000092  00000+0  64182-4 0  9998
2 37190  52.0053  24.2916 0000229  83.8221 310.9131 12.62267434696486
GLOBALSTAR M077         
1 37191U 10054D   25324.03264870 -.00000080  00000+0  66691-4 0  9997
2 37191  52.0123 351.6033 0008906  95.6907 278.1717 11.95391623696673
GLOBALSTAR M075         
1 37192U 10054E   25324.22459076 -.00000106  00000+0 -14461-4 0  9991
2 37192  51.9958  66.4347 0000701 113.1600 258.9237 12.62269730695555
GLOBALSTAR M073         
1 37193U 10054F   25324.30446881 -.00000082  00000+0  12412-3 0  9996
2 37193  52.0080 340.1348 0000143  27.6403 345.8728 12.62264407697556
GLOBALSTAR M083         
1 37739U 11033A   25324.15880980 -.00000099  00000+0  25902-4 0  9992
2 37739  51.9867 289.0924 0000335  41.2516 331.9155 12.62264510666555
GLOBALSTAR M088         
1 37740U 11033B   25323.89491772 -.00000059  00000+0  25199-3 0  9994
2 37740  52.0196 195.8176 0001069  80.9151 291.4322 12.62270284662060
GLOBALSTAR M091         
1 37741U 11033C   25324.25984315 -.00000082  00000+0  12021-3 0  9992
2 37741  51.9963 157.9808 0001039 100.6902  70.5707 12.62261953662890
GLOBALSTAR M085         
1 37742U 11033D   25324.16724067 -.00000116  00000+0 -70209-4 0  9991
2 37742  52.0110 109.3700 0000920 120.6822  50.0148 12.62266856663395
GLOBALSTAR M081         
1 37743U 11033E   25324.19389487 -.00000116  00000+0 -68532-4 0  9994
2 37743  51.9942 111.9623 0000769 108.6221  63.4795 12.62270596663549
GLOBALSTAR M089         
1 37744U 11033F   25324.28048516 -.00000117  00000+0 -73264-4 0  9999
2 37744  51.9940  65.8959 0000700  94.7443 292.0606 12.62272497664402
GLOBALSTAR M084         
1 38040U 11080A   25324.31984418 -.00000091  00000+0  73929-4 0  9993
2 38040  52.0021 293.1502 0000743  39.2579 105.3390 12.62265463642389
GLOBALSTAR M080         
1 38041U 11080B   25324.29004559 -.00000092  00000+0  64098-4 0  9998
2 38041  52.0072 294.8869 0000598 107.0580  31.8267 12.62271182642509
GLOBALSTAR M082         
1 38042U 11080C   25324.22883889 -.00000084  00000+0  11243-3 0  9997
2 38042  52.0074 250.5513 0000685  88.8425  61.6749 12.62265036643203
GLOBALSTAR M092         
1 38043U 11080D   25324.26600225 -.00000093  00000+0  62202-4 0  9995
2 38043  52.0105 340.8242 0000336  85.0493 353.8408 12.62267816641662
GLOBALSTAR M090         
1 38044U 11080E   25324.17454670 -.00000081  00000+0  12572-3 0  9998
2 38044  52.0123 244.6057 0000609  64.0462  78.6435 12.62264269643319
GLOBALSTAR M086         
1 38045U 11080F   25324.20025787 -.00000077  00000+0  15039-3 0  9992
2 38045  51.9894 244.7972 0000902 346.9923 160.8547 12.62279773643268
GLOBALSTAR M097         
1 39072U 13005A   25324.27479788 -.00000077  00000+0  14777-3 0  9991
2 39072  52.0016 159.2841 0000833  90.1503 269.9459 12.62267572590524
GLOBALSTAR M093         
1 39073U 13005B   25324.24876108 -.00000084  00000+0  10912-3 0  9991
2 39073  52.0075 152.6313 0000701 103.1446 256.9499 12.62270721590470
GLOBALSTAR M094         
1 39074U 13005C   25324.24851657 -.00000113  00000+0 -52642-4 0  9995
2 39074  51.9967  66.9538 0000555 134.9864 225.1048 12.62264954592086
GLOBALSTAR M096         
1 39075U 13005D   25324.10326937 -.00000116  00000+0 -67512-4 0  9994
2 39075  52.0051 116.0323 0000844 117.5027 242.5926 12.62268957590983
GLOBALSTAR M078         
1 39076U 13005E   25323.91900228 -.00000147  00000+0 -24297-3 0  9990
2 39076  51.9861 200.8970 0001259 123.8694 236.2292 12.62271722589586
GLOBALSTAR M095         
1 39077U 13005F   25324.10348413 -.00000053  00000+0  28332-3 0  9994
2 39077  52.0062 197.6416 0000793 104.3218 255.7737 12.62266631589468
GLOBALSTAR M087         
1 52888U 22064A   25324.19558730 -.00000094  00000+0  53229-4 0  9997
2 52888  52.0015 338.7166 0000163 131.0040 229.0841 12.62260563164740
